1 33376U 08045A   26046.87779149 -.00000135  00000+0  00000+0 0  9997
2 33376   0.0662 268.1602 0002766  63.7446  32.9533  1.00272663 63689